SL-16 R/B               
1 23405U 94077B   26199.07142117  .00000089  00000+0  69777-4 0  9997
2 23405  70.9821  78.1883 0004118 301.2180  58.8538 14.15574519634683
ARIANE 40+ R/B          
1 23561U 95021B   26199.18004752  .00000111  00000+0  49199-4 0  9996
2 23561  98.4399 268.8052 0007956 108.9553 276.7248 14.39848539638029
SL-16 R/B               
1 23705U 95058B   26199.57934876  .00000281  00000+0  16783-3 0  9998
2 23705  71.0207 265.4502 0014646 278.4397  81.5065 14.15510629586379
SL-16 R/B               
1 24298U 96051B   26199.26269021  .00000144  00000+0  10461-3 0  9994
2 24298  70.7644 258.8856 0018002 294.1271  65.7966 14.12457729540082
ORBVIEW 2 (SEASTAR)     
1 24883U 97037A   26199.45414649  .00000086  00000+0  45971-4 0  9998
2 24883  98.8717   7.3443 0002978  54.3716 305.7745 14.35567659527231
SL-16 R/B               
1 25400U 98043G   26199.30449794  .00000006  00000+0  21644-4 0  9998
2 25400  98.8380 153.7345 0009881   2.6266 357.4963 14.26073003457600
SL-16 R/B               
1 25407U 98045B   26199.31415702 -.00000048  00000+0 -34107-6 0  9998
2 25407  71.0104 266.8694 0008015 201.8872 158.1910 14.16204898445591
ISS (ZARYA)             
1 25544U 98067A   26199.34696572  .00003718  00000+0  75524-4 0  9994
2 25544  51.6316 145.8895 0006803 309.9700  50.0690 15.49039991576580
CZ-4B R/B               
1 25732U 99025C   26199.62257780  .00000003  00000+0  22516-4 0  9990
2 25732  98.6470 240.6675 0036470 329.7399 195.3137 14.18288059406721
OKEAN-O                 
1 25860U 99039A   26199.64012923  .00000222  00000+0  35843-4 0  9997
2 25860  97.9298 258.0741 0000888  94.7843 265.3471 14.80499452453762
SL-16 R/B               
1 25861U 99039B   26199.63273824  .00000185  00000+0  30238-4 0  9997
2 25861  97.9820 258.4033 0014588 187.0138 173.0873 14.81872564456255
DELTA 2 R/B             
1 25876U 99041E   26199.24831731  .00000891  00000+0  18226-3 0  9996
2 25876  51.7611 139.6966 0501442  13.7707 347.6344 14.12092267381470
HELIOS 1B               
1 25977U 99064A   26199.24497705  .00000575  00000+0  68857-4 0  9997
2 25977  98.1580 105.2802 0001777  51.4101 308.7273 14.88079116704674
TERRA                   
1 25994U 99068A   26199.60659832  .00000151  00000+0  39702-4 0  9998
2 25994  97.9439 247.9044 0003536 116.1345  44.6257 14.61125153414196
SL-16 R/B               
1 26070U 00006B   26199.36339125  .00000056  00000+0  52811-4 0  9991
2 26070  71.0003 183.0713 0017318 335.6413  24.3890 14.15838129367055
TITAN 4B R/B            
1 26474U 00047B   26199.58415351  .00001159  00000+0  77322-4 0  9993
2 26474  67.9873  32.1857 0045741 255.3928 104.2148 15.10342091412672
ENVISAT                 
1 27386U 02009A   26199.34565127  .00000023  00000+0  21205-4 0  9995
2 27386  98.3848 149.9720 0001313  83.0941  64.7032 14.39071131277966
IDEFIX & ARIANE 42P R/B 
1 27422U 02021B   26199.59216403  .00000075  00000+0  45002-4 0  9995
2 27422  98.5941 136.7359 0012119 156.5813 203.5925 14.31094524262742
AQUA                    
1 27424U 02022A   26199.60004448  .00000309  00000+0  71293-4 0  9995
2 27424  98.4299 169.5150 0001252 101.5604 313.3072 14.62131087287869
CZ-4B R/B               
1 27432U 02024C   26199.59516795 -.00000011  00000+0  17415-4 0  9994
2 27432  98.8683 252.2084 0050293  12.3885 152.2521 14.14568458247749
MIDORI II (ADEOS-II)    
1 27597U 02056A   26199.35859893  .00000090  00000+0  53179-4 0  9997
2 27597  98.7896 158.8867 0001351  37.2300 322.8975 14.29363881228965
H-2A R/B                
1 27601U 02056E   26199.12558810  .00000120  00000+0  56372-4 0  9995
2 27601  98.3330 154.6753 0071028 132.2936 238.6642 14.33834808232807
CZ-4B R/B               
1 28059U 03049C   26199.44989816  .00000112  00000+0  37413-4 0  9991
2 28059  98.6912 199.5432 0047864 191.2459 168.7671 14.55117301205612
CZ-2C R/B               
1 28222U 04012C   26199.21114006  .00105020  00000+0  42634-3 0  9994
2 28222  97.7049 278.6452 0011019 183.0789 177.0415 15.85865778224807
SL-16 R/B               
1 28353U 04021B   26199.62807978 -.00000111  00000+0 -33092-4 0  9997
2 28353  71.0030 317.7044 0006195 222.1236 137.9411 14.14616376141358
CZ-4B R/B               
1 28415U 04035C   26199.05074265  .00003907  00000+0  13132-3 0  9999
2 28415  97.3352 231.7827 0029454 222.0369 137.8613 15.31014525199846
CZ-2C R/B               
1 28480U 04046B   26199.46368344  .00000068  00000+0  39828-4 0  9998
2 28480  98.1912 106.2849 0140301 127.7807 233.6179 14.27033861127157
ARIANE 5 R/B            
1 28499U 04049H   26199.45226317  .00000248  00000+0  34303-4 0  9996
2 28499  98.2744  12.9185 0082537 287.5511  71.6698 14.85480833165203
CZ-2D R/B               
1 28738U 05024B   26199.04205904  .00045527  00000+0  33432-3 0  9990
2 28738  97.3468 220.0899 0002855 185.3434 174.7800 15.73001081160184
ALOS (DAICHI)           
1 28931U 06002A   26199.33204524  .00000482  00000+0  88382-4 0  9997
2 28931  98.1339 154.8065 0000903 106.5315 253.5990 14.70105367 92671
